{"fetched_at":"2026-07-18T17:29:33.240Z","source":"https://celestrak.org/NORAD/elements/gp.php?GROUP=planet&FORMAT=JSON","constellation":"superdove","records":[{"OBJECT_NAME":"FLOCK 4G-23","OBJECT_ID":"2025-009AQ","EPOCH":"2026-07-18T03:53:09.697056","CLASSIFICATION_TYPE":"U","MEAN_MOTION":15.34911209,"ECCENTRICITY":0.00034279,"INCLINATION":97.392,"RA_OF_ASC_NODE":280.8583,"ARG_OF_PERICENTER":165.9315,"MEAN_ANOMALY":194.2024,"EPHEMERIS_TYPE":0,"NORAD_CAT_ID":62647,"ELEMENT_SET_NO":999,"REV_AT_EPOCH":8367,"BSTAR":0.00069416406,"MEAN_MOTION_DOT":0.00023471,"MEAN_MOTION_DDOT":0},{"OBJECT_NAME":"FLOCK 4G-34","OBJECT_ID":"2025-009AT","EPOCH":"2026-07-18T04:48:40.321152","CLASSIFICATION_TYPE":"U","MEAN_MOTION":15.29809407,"ECCENTRICITY":0.00026181,"INCLINATION":97.3956,"RA_OF_ASC_NODE":280.6359,"ARG_OF_PERICENTER":155.5255,"MEAN_ANOMALY":204.611,"EPHEMERIS_TYPE":0,"NORAD_CAT_ID":62650,"ELEMENT_SET_NO":999,"REV_AT_EPOCH":8365,"BSTAR":0.00018728041,"MEAN_MOTION_DOT":0.0000533,"MEAN_MOTION_DDOT":0},{"OBJECT_NAME":"FLOCK 4G-21","OBJECT_ID":"2025-009AU","EPOCH":"2026-07-18T04:17:20.763456","CLASSIFICATION_TYPE":"U","MEAN_MOTION":15.32994439,"ECCENTRICITY":0.00034776,"INCLINATION":97.3983,"RA_OF_ASC_NODE":281.6326,"ARG_OF_PERICENTER":182.1941,"MEAN_ANOMALY":177.9286,"EPHEMERIS_TYPE":0,"NORAD_CAT_ID":62651,"ELEMENT_SET_NO":999,"REV_AT_EPOCH":8370,"BSTAR":0.00063063729,"MEAN_MOTION_DOT":0.00020054,"MEAN_MOTION_DDOT":0},{"OBJECT_NAME":"FLOCK 4G-31","OBJECT_ID":"2025-009AV","EPOCH":"2026-07-18T03:58:04.714176","CLASSIFICATION_TYPE":"U","MEAN_MOTION":15.29614367,"ECCENTRICITY":0.00022127,"INCLINATION":97.3961,"RA_OF_ASC_NODE":280.572,"ARG_OF_PERICENTER":153.1163,"MEAN_ANOMALY":207.0193,"EPHEMERIS_TYPE":0,"NORAD_CAT_ID":62652,"ELEMENT_SET_NO":999,"REV_AT_EPOCH":8364,"BSTAR":0.00019493253,"MEAN_MOTION_DOT":0.00005518,"MEAN_MOTION_DDOT":0},{"OBJECT_NAME":"FLOCK 4G-4","OBJECT_ID":"2025-009BC","EPOCH":"2026-07-18T04:45:11.923488","CLASSIFICATION_TYPE":"U","MEAN_MOTION":15.32272182,"ECCENTRICITY":0.00049573,"INCLINATION":97.3935,"RA_OF_ASC_NODE":280.4276,"ARG_OF_PERICENTER":182.0001,"MEAN_ANOMALY":178.1222,"EPHEMERIS_TYPE":0,"NORAD_CAT_ID":62659,"ELEMENT_SET_NO":999,"REV_AT_EPOCH":14125,"BSTAR":0.00064725736,"MEAN_MOTION_DOT":0.00020127,"MEAN_MOTION_DDOT":0},{"OBJECT_NAME":"FLOCK 4G-6","OBJECT_ID":"2025-009BD","EPOCH":"2026-07-18T03:41:22.979616","CLASSIFICATION_TYPE":"U","MEAN_MOTION":15.30006662,"ECCENTRICITY":0.00032101,"INCLINATION":97.3935,"RA_OF_ASC_NODE":280.4135,"ARG_OF_PERICENTER":190.1119,"MEAN_ANOMALY":170.0058,"EPHEMERIS_TYPE":0,"NORAD_CAT_ID":62660,"ELEMENT_SET_NO":999,"REV_AT_EPOCH":14123,"BSTAR":0.00016218772,"MEAN_MOTION_DOT":0.00004634,"MEAN_MOTION_DDOT":0},{"OBJECT_NAME":"FLOCK 4G-2","OBJECT_ID":"2025-009BE","EPOCH":"2026-07-18T03:31:10.960032","CLASSIFICATION_TYPE":"U","MEAN_MOTION":15.30362833,"ECCENTRICITY":0.00040435,"INCLINATION":97.4003,"RA_OF_ASC_NODE":281.0521,"ARG_OF_PERICENTER":190.533,"MEAN_ANOMALY":169.5827,"EPHEMERIS_TYPE":0,"NORAD_CAT_ID":62661,"ELEMENT_SET_NO":999,"REV_AT_EPOCH":14126,"BSTAR":0.00019025221,"MEAN_MOTION_DOT":0.00005511,"MEAN_MOTION_DDOT":0},{"OBJECT_NAME":"FLOCK 4G-5","OBJECT_ID":"2025-009BG","EPOCH":"2026-07-18T03:22:15.663648","CLASSIFICATION_TYPE":"U","MEAN_MOTION":15.30936293,"ECCENTRICITY":0.00037725,"INCLINATION":97.402,"RA_OF_ASC_NODE":281.4497,"ARG_OF_PERICENTER":172.5557,"MEAN_ANOMALY":187.5741,"EPHEMERIS_TYPE":0,"NORAD_CAT_ID":62663,"ELEMENT_SET_NO":999,"REV_AT_EPOCH":8367,"BSTAR":0.00016482464,"MEAN_MOTION_DOT":0.0000485,"MEAN_MOTION_DDOT":0},{"OBJECT_NAME":"FLOCK 4G-1","OBJECT_ID":"2025-009BK","EPOCH":"2026-07-18T04:43:58.724544","CLASSIFICATION_TYPE":"U","MEAN_MOTION":15.30222739,"ECCENTRICITY":0.00043492,"INCLINATION":97.4014,"RA_OF_ASC_NODE":281.0817,"ARG_OF_PERICENTER":187.7238,"MEAN_ANOMALY":172.3937,"EPHEMERIS_TYPE":0,"NORAD_CAT_ID":62666,"ELEMENT_SET_NO":999,"REV_AT_EPOCH":8365,"BSTAR":0.0001899539,"MEAN_MOTION_DOT":0.00005478,"MEAN_MOTION_DDOT":0},{"OBJECT_NAME":"FLOCK 4G-14","OBJECT_ID":"2025-009BL","EPOCH":"2026-07-18T03:55:51.322944","CLASSIFICATION_TYPE":"U","MEAN_MOTION":15.2977093,"ECCENTRICITY":0.00045483,"INCLINATION":97.4017,"RA_OF_ASC_NODE":280.8431,"ARG_OF_PERICENTER":183.4995,"MEAN_ANOMALY":176.6214,"EPHEMERIS_TYPE":0,"NORAD_CAT_ID":62667,"ELEMENT_SET_NO":999,"REV_AT_EPOCH":8363,"BSTAR":0.00020452236,"MEAN_MOTION_DOT":0.00005822,"MEAN_MOTION_DDOT":0},{"OBJECT_NAME":"FLOCK 4G-10","OBJECT_ID":"2025-009BP","EPOCH":"2026-07-18T04:11:17.155968","CLASSIFICATION_TYPE":"U","MEAN_MOTION":15.2987262,"ECCENTRICITY":0.00040265,"INCLINATION":97.3918,"RA_OF_ASC_NODE":280.1479,"ARG_OF_PERICENTER":200.6801,"MEAN_ANOMALY":159.4277,"EPHEMERIS_TYPE":0,"NORAD_CAT_ID":62670,"ELEMENT_SET_NO":999,"REV_AT_EPOCH":14127,"BSTAR":0.00020158609,"MEAN_MOTION_DOT":0.00005756,"MEAN_MOTION_DDOT":0},{"OBJECT_NAME":"FLOCK 4G-36","OBJECT_ID":"2025-009BU","EPOCH":"2026-07-18T04:03:28.535328","CLASSIFICATION_TYPE":"U","MEAN_MOTION":15.29848394,"ECCENTRICITY":0.0004659,"INCLINATION":97.4007,"RA_OF_ASC_NODE":280.7698,"ARG_OF_PERICENTER":188.9896,"MEAN_ANOMALY":171.1262,"EPHEMERIS_TYPE":0,"NORAD_CAT_ID":62675,"ELEMENT_SET_NO":999,"REV_AT_EPOCH":8363,"BSTAR":0.00021370992,"MEAN_MOTION_DOT":0.00006102,"MEAN_MOTION_DDOT":0},{"OBJECT_NAME":"FLOCK 4G-15","OBJECT_ID":"2025-009BX","EPOCH":"2026-07-18T04:13:12.448992","CLASSIFICATION_TYPE":"U","MEAN_MOTION":15.29938108,"ECCENTRICITY":0.00048976,"INCLINATION":97.4009,"RA_OF_ASC_NODE":280.9197,"ARG_OF_PERICENTER":185.8959,"MEAN_ANOMALY":174.2224,"EPHEMERIS_TYPE":0,"NORAD_CAT_ID":62678,"ELEMENT_SET_NO":999,"REV_AT_EPOCH":14128,"BSTAR":0.00020832887,"MEAN_MOTION_DOT":0.00005963,"MEAN_MOTION_DDOT":0},{"OBJECT_NAME":"FLOCK 4G-30","OBJECT_ID":"2025-009BY","EPOCH":"2026-07-18T04:14:07.170432","CLASSIFICATION_TYPE":"U","MEAN_MOTION":15.3408748,"ECCENTRICITY":0.00046125,"INCLINATION":97.3906,"RA_OF_ASC_NODE":280.4573,"ARG_OF_PERICENTER":187.7127,"MEAN_ANOMALY":172.4046,"EPHEMERIS_TYPE":0,"NORAD_CAT_ID":62679,"ELEMENT_SET_NO":999,"REV_AT_EPOCH":14129,"BSTAR":0.00067766881,"MEAN_MOTION_DOT":0.0002232,"MEAN_MOTION_DDOT":0},{"OBJECT_NAME":"FLOCK 4G-18","OBJECT_ID":"2025-009BZ","EPOCH":"2026-07-18T04:39:44.534880","CLASSIFICATION_TYPE":"U","MEAN_MOTION":15.32331697,"ECCENTRICITY":0.00064265,"INCLINATION":97.4,"RA_OF_ASC_NODE":280.8663,"ARG_OF_PERICENTER":200.6327,"MEAN_ANOMALY":159.4656,"EPHEMERIS_TYPE":0,"NORAD_CAT_ID":62680,"ELEMENT_SET_NO":999,"REV_AT_EPOCH":14128,"BSTAR":0.00065566404,"MEAN_MOTION_DOT":0.00020434,"MEAN_MOTION_DDOT":0},{"OBJECT_NAME":"FLOCK 4G-17","OBJECT_ID":"2025-009CA","EPOCH":"2026-07-18T03:16:31.469376","CLASSIFICATION_TYPE":"U","MEAN_MOTION":15.30118341,"ECCENTRICITY":0.0004389,"INCLINATION":97.3914,"RA_OF_ASC_NODE":280.3485,"ARG_OF_PERICENTER":201.7715,"MEAN_ANOMALY":158.334,"EPHEMERIS_TYPE":0,"NORAD_CAT_ID":62681,"ELEMENT_SET_NO":999,"REV_AT_EPOCH":14128,"BSTAR":0.00019339232,"MEAN_MOTION_DOT":0.00005561,"MEAN_MOTION_DDOT":0}]}
