FLOCK 4G-23             
1 62647U 25009AQ  26199.16191779  .00023471  00000+0  69416-3 0  9994
2 62647  97.3920 280.8583 0003427 165.9315 194.2024 15.34911209 83678
FLOCK 4G-34             
1 62650U 25009AT  26199.20046668  .00005330  00000+0  18728-3 0  9993
2 62650  97.3956 280.6359 0002618 155.5255 204.6110 15.29809407 83659
FLOCK 4G-21             
1 62651U 25009AU  26199.17871254  .00020054  00000+0  63064-3 0  9990
2 62651  97.3983 281.6326 0003477 182.1941 177.9286 15.32994439 83703
FLOCK 4G-31             
1 62652U 25009AV  26199.16533234  .00005518  00000+0  19493-3 0  9998
2 62652  97.3961 280.5720 0002212 153.1163 207.0193 15.29614367 83646
FLOCK 4G-4              
1 62659U 25009BC  26199.19805467  .00020127  00000+0  64726-3 0  9990
2 62659  97.3935 280.4276 0004957 182.0001 178.1222 15.32272182141251
FLOCK 4G-6              
1 62660U 25009BD  26199.15373819  .00004634  00000+0  16219-3 0  9998
2 62660  97.3935 280.4135 0003210 190.1119 170.0058 15.30006662141230
FLOCK 4G-2              
1 62661U 25009BE  26199.14665463  .00005511  00000+0  19025-3 0  9990
2 62661  97.4003 281.0521 0004043 190.5330 169.5827 15.30362833141263
FLOCK 4G-5              
1 62663U 25009BG  26199.14045907  .00004850  00000+0  16482-3 0  9996
2 62663  97.4020 281.4497 0003772 172.5557 187.5741 15.30936293 83671
FLOCK 4G-1              
1 62666U 25009BK  26199.19720746  .00005478  00000+0  18995-3 0  9993
2 62666  97.4014 281.0817 0004349 187.7238 172.3937 15.30222739 83654
FLOCK 4G-14             
1 62667U 25009BL  26199.16378846  .00005822  00000+0  20452-3 0  9995
2 62667  97.4017 280.8431 0004548 183.4995 176.6214 15.29770930 83633
FLOCK 4G-10             
1 62670U 25009BP  26199.17450412  .00005756  00000+0  20159-3 0  9990
2 62670  97.3918 280.1479 0004026 200.6801 159.4277 15.29872620141272
FLOCK 4G-36             
1 62675U 25009BU  26199.16908027  .00006102  00000+0  21371-3 0  9997
2 62675  97.4007 280.7698 0004659 188.9896 171.1262 15.29848394 83631
FLOCK 4G-15             
1 62678U 25009BX  26199.17583853  .00005963  00000+0  20833-3 0  9993
2 62678  97.4009 280.9197 0004897 185.8959 174.2224 15.29938108141283
FLOCK 4G-30             
1 62679U 25009BY  26199.17647188  .00022320  00000+0  67767-3 0  9999
2 62679  97.3906 280.4573 0004612 187.7127 172.4046 15.34087480141292
FLOCK 4G-18             
1 62680U 25009BZ  26199.19426545  .00020434  00000+0  65566-3 0  9994
2 62680  97.4000 280.8663 0006426 200.6327 159.4656 15.32331697141287
FLOCK 4G-17             
1 62681U 25009CA  26199.13647534  .00005561  00000+0  19339-3 0  9993
2 62681  97.3914 280.3485 0004389 201.7715 158.3340 15.30118341141282
